{"fetched_at":"2026-03-29T02:12:04Z","count":15717,"tles":[{"name":"COSMOS 2433 (720)","line1":"1 32275U 07052A   26087.20336590 -.00000030  00000+0  00000+0 0  9996","line2":"2 32275  65.6216 318.6607 0001116 260.7324  99.3104  2.13103881143338","category":"Other"}]}